KUIPER-00125            
1 65954U 25228H   26024.25002315 -.02070899  00000+0 -17645+0 0  9998
2 65954  51.8938 178.0861 0003152 166.5945 235.6312 15.00935816  4883
KUIPER-00126            
1 65955U 25228J   26023.88923184  .00003009  00000+0  42362-3 0  9996
2 65955  51.8973 198.7135 0000547 107.5539 252.5483 14.79918914 16598
KUIPER-00127            
1 65956U 25228K   26024.16009514  .00009070  00000+0  77584-3 0  9999
2 65956  51.8941 190.7211 0005237 203.8912 156.1816 14.98241438 16733
KUIPER-00128            
1 65957U 25228L   26023.72859255  .00005016  00000+0  68642-3 0  9997
2 65957  51.8997 191.9346 0000720  76.4357 283.6685 14.79938254 16677
KUIPER-00129            
1 65958U 25228M   26024.25002315  .00013606  00000+0  17822-2 0  9991
2 65958  51.8992 184.6177 0000705 124.9320 283.9251 14.80589108  5656
KUIPER-00130            
1 65959U 25228N   26024.00002315 -.00006918  00000+0 -87854-3 0  9998
2 65959  51.9009 188.2170 0000779  57.0623 296.2210 14.79975235  5822
KUIPER-00134            
1 65960U 25228P   26023.80985837  .00053731  00000+0  14609-2 0  9996
2 65960  51.8762 177.5160 0007153 155.7649 204.3676 15.37000040 16888
KUIPER-00135            
1 65961U 25228Q   26024.25002315  .00024683  00000+0  32531-2 0  9996
2 65961  51.9007 187.1755 0000767 117.2310 308.3375 14.79954952  5043
